{"type": "FeatureCollection", "name": "dap_dang", "crs": {"type": "name", "properties": {"name": "urn:ogc:def:crs:OGC:1.3:CRS84"}}, "features": [{"type": "Feature", "geometry": {"type": "Point", "coordinates": [105.3, 18.91]}, "properties": {"ma": "Đang cập nhật", "ten": "Đập Diễn Yên Quỳnh", "loai": "Đập dâng", "vung": "Bắc Trung Bộ", "tinh": "40", "don_vi": "Đang cập nhật", "luu_vuc": "Sông Cả", "dt_tuoi": 30000.0}}, {"type": "Feature", "geometry": {"type": "Point", "coordinates": [106.34, 17.72]}, "properties": {"ma": "Đang cập nhật", "ten": "Đập Rào Nan", "loai": "Đập dâng", "vung": "Bắc Trung Bộ", "tinh": "44", "don_vi": "Đang cập nhật", "luu_vuc": "Sông Gianh", "dt_tuoi": 1800.0}}, {"type": "Feature", "geometry": {"type": "Point", "coordinates": [107.46, 16.65]}, "properties": {"ma": "Đang cập nhật", "ten": "Đập Cửa Lác", "loai": "Đập dâng", "vung": "Bắc Trung Bộ", "tinh": "46", "don_vi": "Đang cập nhật", "luu_vuc": "Sông Hương", "dt_tuoi": 10510.0}}, {"type": "Feature", "geometry": {"type": "Point", "coordinates": [106.328701, 21.441759]}, "properties": {"ma": "G10.TL0012.DD001", "ten": "Đập Cầu Sơn", "loai": "Đập dâng", "vung": "ĐB Sông Hồng", "tinh": "24", "don_vi": "Bộ NN&PTNT", "luu_vuc": "Sông Thương", "flv_km2": 0.0, "w_huu_ich": 0.0, "w_toanbo": 0.0, "mndbt": 0.0, "mndgc": 0.0, "mnc": 0.0, "dt_tuoi": 0.0}}, {"type": "Feature", "geometry": {"type": "Point", "coordinates": [105.299033, 18.913579]}, "properties": {"ma": "H41.TL0037.DD001", "ten": "Đập Đô Lương", "loai": "Đập dâng", "vung": "Bắc Trung Bộ", "tinh": "40", "don_vi": "Đang cập nhật", "luu_vuc": "Sông Cả", "flv_km2": 0.0, "w_huu_ich": 0.0, "w_toanbo": 0.0, "mndbt": 0.0, "mndgc": 0.0, "mnc": 0.0, "dt_tuoi": 0.0}}, {"type": "Feature", "geometry": {"type": "Point", "coordinates": [107.077971, 16.823227]}, "properties": {"ma": "H41.TL0038.DD001", "ten": "Đập Sông Hiếu", "loai": "Đập dâng", "vung": "Bắc Trung Bộ", "tinh": "45", "don_vi": "Đang cập nhật", "luu_vuc": "Sông Cả", "flv_km2": 0.0, "w_huu_ich": 0.0, "w_toanbo": 0.0, "mndbt": 0.0, "mndgc": 0.0, "mnc": 0.0, "dt_tuoi": 0.0}}, {"type": "Feature", "geometry": {"type": "Point", "coordinates": [106.949444, 17.046667]}, "properties": {"ma": "H50.TL0016.DD001", "ten": "Đập Sa Lung", "loai": "Đập dâng", "nam_xd": "2009", "vung": "Bắc Trung Bộ", "tinh": "45", "don_vi": "Công ty KTCTTL Quảng Trị", "luu_vuc": "Sông Thạch Hãn", "flv_km2": 156.0, "w_huu_ich": 0.0, "w_toanbo": 0.0, "mndbt": 5.0, "mndgc": 6.0, "mnc": 0.0, "dt_tuoi": 0.0}}, {"type": "Feature", "geometry": {"type": "Point", "coordinates": [107.135417, 16.7]}, "properties": {"ma": "H50.TL0017.DD001", "ten": "Đập Thạch Hãn", "loai": "Đập dâng", "nam_xd": "1978", "vung": "Bắc Trung Bộ", "tinh": "45", "don_vi": "Công ty KTCTTL Quảng Trị", "luu_vuc": "Sông Thạch Hãn", "flv_km2": 1301.0, "w_huu_ich": 0.0, "w_toanbo": 0.0, "mndbt": 11.0, "mndgc": 19.0, "mnc": 5.0, "dt_tuoi": 0.0}}, {"type": "Feature", "geometry": {"type": "Point", "coordinates": [108.154219, 15.955529]}, "properties": {"ma": "G10.TL0019.DD001", "ten": "Đập An Trạch", "loai": "Đập dâng", "vung": "Nam Trung Bộ", "tinh": "48", "don_vi": "Bộ NN&PTNT - KTCTTL Quảng Nam", "luu_vuc": "Sông Vu Gia-Thu Bồn", "flv_km2": 0.0, "w_huu_ich": 0.0, "w_toanbo": 0.0, "mndbt": 0.0, "mndgc": 0.0, "mnc": 0.0, "dt_tuoi": 0.0}}, {"type": "Feature", "geometry": {"type": "Point", "coordinates": [108.196686, 15.953017]}, "properties": {"ma": "G10.TL0019.DD002", "ten": "Đập Hà Thanh", "loai": "Đập dâng", "vung": "Nam Trung Bộ", "tinh": "49", "don_vi": "Bộ NN&PTNT - KTCTTL Quảng Nam", "luu_vuc": "Sông Vu Gia-Thu Bồn", "flv_km2": 0.0, "w_huu_ich": 0.0, "w_toanbo": 0.0, "mndbt": 0.0, "mndgc": 0.0, "mnc": 0.0, "dt_tuoi": 0.0}}, {"type": "Feature", "geometry": {"type": "Point", "coordinates": [108.202821, 15.94915]}, "properties": {"ma": "G10.TL0019.DD003", "ten": "Đập Bàu Nít", "loai": "Đập dâng", "vung": "Nam Trung Bộ", "tinh": "49", "don_vi": "Bộ NN&PTNT - KTCTTL Quảng Nam", "luu_vuc": "Sông Vu Gia-Thu Bồn", "flv_km2": 0.0, "w_huu_ich": 0.0, "w_toanbo": 0.0, "mndbt": 0.0, "mndgc": 0.0, "mnc": 0.0, "dt_tuoi": 0.0}}, {"type": "Feature", "geometry": {"type": "Point", "coordinates": [108.216951, 15.916108]}, "properties": {"ma": "G10.TL0019.DD004", "ten": "Đập Thanh Quýt", "loai": "Đập dâng", "vung": "Nam Trung Bộ", "tinh": "49", "don_vi": "Bộ NN&PTNT - KTCTTL Quảng Nam", "luu_vuc": "Sông Vu Gia-Thu Bồn", "flv_km2": 0.0, "w_huu_ich": 0.0, "w_toanbo": 0.0, "mndbt": 0.0, "mndgc": 0.0, "mnc": 0.0, "dt_tuoi": 0.0}}, {"type": "Feature", "geometry": {"type": "Point", "coordinates": [108.329, 15.8315]}, "properties": {"ma": "H47.TL0018.DD001", "ten": "Đập Duy Thành", "loai": "Đập dâng", "vung": "Nam Trung Bộ", "tinh": "49", "don_vi": "Công ty KTCTTL Quảng Nam", "luu_vuc": "Sông Vu Gia-Thu Bồn", "flv_km2": 0.0, "w_huu_ich": 0.0, "w_toanbo": 0.0, "mndbt": 0.0, "mndgc": 0.0, "mnc": 0.0, "dt_tuoi": 0.0}}, {"type": "Feature", "geometry": {"type": "Point", "coordinates": [105.63, 18.17]}, "properties": {"ma": "Đang cập nhật", "ten": "Đập Sông Tiêm", "loai": "Đập dâng", "vung": "Bắc Trung Bộ", "tinh": "42", "don_vi": "Đang cập nhật", "luu_vuc": "Sông Cả", "dt_tuoi": 2500.0}}, {"type": "Feature", "geometry": {"type": "Point", "coordinates": [108.560585, 15.191118]}, "properties": {"ma": "H48.TL0022.DD001", "ten": "Đập Sông Giang", "loai": "Đập dâng", "nam_xd": "1978", "vung": "Nam Trung Bộ", "tinh": "51", "don_vi": "Công ty KTCTTL Quảng Ngãi", "luu_vuc": "Sông Trà Bồng-Trà Khúc", "flv_km2": 0.0, "w_huu_ich": 0.0, "w_toanbo": 0.0, "mndbt": 0.0, "mndgc": 0.0, "mnc": 0.0, "dt_tuoi": 1200.0}}, {"type": "Feature", "geometry": {"type": "Point", "coordinates": [108.913601, 14.827779]}, "properties": {"ma": "H48.TL0023.DD001", "ten": "Đập An Nhơn", "loai": "Đập dâng", "nam_xd": "2016", "vung": "Nam Trung Bộ", "tinh": "51", "don_vi": "Công ty KTCTTL Quảng Ngãi", "luu_vuc": "Sông Trà Bồng-Trà Khúc", "flv_km2": 0.0, "w_huu_ich": 0.0, "w_toanbo": 0.0, "mndbt": 0.0, "mndgc": 0.0, "mnc": 0.0, "dt_tuoi": 100.0}}, {"type": "Feature", "geometry": {"type": "Point", "coordinates": [107.61, 16.55]}, "properties": {"ma": "Đang cập nhật", "ten": "Đập Thảo Long", "loai": "Đập dâng", "vung": "Bắc Trung Bộ", "tinh": "46", "don_vi": "Đang cập nhật", "luu_vuc": "Sông Hương", "dt_tuoi": 19200.0}}, {"type": "Feature", "geometry": {"type": "Point", "coordinates": [108.990861, 14.816431]}, "properties": {"ma": "H48.TL0024.DD001", "ten": "Đập Hiển Tây", "loai": "Đập dâng", "nam_xd": "1988", "vung": "Nam Trung Bộ", "tinh": "51", "don_vi": "Công ty KTCTTL Quảng Ngãi", "luu_vuc": "Sông Trà Bồng-Trà Khúc", "flv_km2": 20.0, "w_huu_ich": 0.0, "w_toanbo": 0.0, "mndbt": 0.0, "mndgc": 0.0, "mnc": 0.0, "dt_tuoi": 80.0}}, {"type": "Feature", "geometry": {"type": "Point", "coordinates": [108.484941, 14.957604]}, "properties": {"ma": "H48.TL0025.DD001", "ten": "Đập Xô Lô", "loai": "Đập dâng", "nam_xd": "2009", "vung": "Nam Trung Bộ", "tinh": "51", "don_vi": "Công ty KTCTTL Quảng Ngãi", "luu_vuc": "Sông Trà Bồng-Trà Khúc", "flv_km2": 0.0, "w_huu_ich": 0.0, "w_toanbo": 0.0, "mndbt": 0.0, "mndgc": 0.0, "mnc": 0.0, "dt_tuoi": 250.0}}, {"type": "Feature", "geometry": {"type": "Point", "coordinates": [108.87403, 13.93877]}, "properties": {"ma": "H08.TL0025.DD002", "ten": "Đập Văn Phong", "loai": "Đập dâng", "vung": "Nam Trung Bộ", "tinh": "52", "don_vi": "Công ty KTCTTL Bình Định", "luu_vuc": "Sông Kôn", "flv_km2": 1577.0, "w_huu_ich": 0.0, "w_toanbo": 0.0, "mndbt": 0.0, "mndgc": 0.0, "mnc": 0.0, "dt_tuoi": 13000.0}}, {"type": "Feature", "geometry": {"type": "Point", "coordinates": [109.040104, 13.898814]}, "properties": {"ma": "H08.TL0027.DD002", "ten": "Đập Bảy Yến", "loai": "Đập dâng", "vung": "Nam Trung Bộ", "tinh": "52", "don_vi": "Công ty KTCTTL Bình Định", "luu_vuc": "Sông Kôn", "flv_km2": 0.0, "w_huu_ich": 0.0, "w_toanbo": 0.0, "mndbt": 0.0, "mndgc": 0.0, "mnc": 0.0, "dt_tuoi": 0.0}}, {"type": "Feature", "geometry": {"type": "Point", "coordinates": [109.089567, 13.895234]}, "properties": {"ma": "H08.TL0027.DD003", "ten": "Đập Tháp Mão", "loai": "Đập dâng", "vung": "Nam Trung Bộ", "tinh": "52", "don_vi": "Công ty KTCTTL Bình Định", "luu_vuc": "Sông Kôn", "flv_km2": 0.0, "w_huu_ich": 0.0, "w_toanbo": 0.0, "mndbt": 0.0, "mndgc": 0.0, "mnc": 0.0, "dt_tuoi": 0.0}}, {"type": "Feature", "geometry": {"type": "Point", "coordinates": [109.12741, 13.8754]}, "properties": {"ma": "H08.TL0027.DD004", "ten": "Đập Thạnh Hòa", "loai": "Đập dâng", "vung": "Nam Trung Bộ", "tinh": "52", "don_vi": "Công ty KTCTTL Bình Định", "luu_vuc": "Sông Kôn", "flv_km2": 0.0, "w_huu_ich": 0.0, "w_toanbo": 0.0, "mndbt": 0.0, "mndgc": 0.0, "mnc": 0.0, "dt_tuoi": 0.0}}, {"type": "Feature", "geometry": {"type": "Point", "coordinates": [109.1028, 14.1129]}, "properties": {"ma": "H08.TL0031.DD002", "ten": "Đập Cây Ké", "loai": "Đập dâng", "vung": "Nam Trung Bộ", "tinh": "52", "don_vi": "Công ty KTCTTL Bình Định", "luu_vuc": "Sông Kôn", "flv_km2": 0.0, "w_huu_ich": 0.0, "w_toanbo": 0.0, "mndbt": 0.0, "mndgc": 0.0, "mnc": 0.0, "dt_tuoi": 0.0}}, {"type": "Feature", "geometry": {"type": "Point", "coordinates": [108.79002, 14.002309]}, "properties": {"ma": "H08.TL0033.DD001", "ten": "Đập Thượng Sơn", "loai": "Đập dâng", "nam_xd": "2020", "vung": "Nam Trung Bộ", "tinh": "52", "don_vi": "Công ty KTCTTL Bình Định", "luu_vuc": "Sông Kôn", "flv_km2": 0.0, "w_huu_ich": 0.0, "w_toanbo": 0.0, "mndbt": 0.0, "mndgc": 0.0, "mnc": 0.0, "dt_tuoi": 3500.0}}, {"type": "Feature", "geometry": {"type": "Point", "coordinates": [109.235419, 12.917189]}, "properties": {"ma": "H45.TL0018.DD001", "ten": "Đập An San", "loai": "Đập dâng", "nam_xd": "1983", "vung": "Nam Trung Bộ", "tinh": "54", "don_vi": "Công ty KTCTTL Đồng Cam", "luu_vuc": "Sông Ba", "flv_km2": 0.0, "w_huu_ich": 0.0, "w_toanbo": 0.0, "mndbt": 0.0, "mndgc": 0.0, "mnc": 0.0, "dt_tuoi": 711.0}}, {"type": "Feature", "geometry": {"type": "Point", "coordinates": [109.365588, 12.925475]}, "properties": {"ma": "H45.TL0019.DD001", "ten": "Đập Tân Giang Thượng", "loai": "Đập dâng", "nam_xd": "1998", "vung": "Nam Trung Bộ", "tinh": "54", "don_vi": "Công ty KTCTTL Đồng Cam", "luu_vuc": "Sông Ba", "flv_km2": 0.0, "w_huu_ich": 0.0, "w_toanbo": 0.0, "mndbt": 0.0, "mndgc": 0.0, "mnc": 0.0, "dt_tuoi": 370.0}}, {"type": "Feature", "geometry": {"type": "Point", "coordinates": [109.0786, 12.4963]}, "properties": {"ma": "H32.TL0020.DD001", "ten": "Đập Sông Cái NH", "loai": "Đập dâng", "vung": "Nam Trung Bộ", "tinh": "56", "don_vi": "Công ty KTCTTL Khánh Hòa", "luu_vuc": "Sông Cái Ninh Hòa", "flv_km2": 0.0, "w_huu_ich": 0.0, "w_toanbo": 0.0, "mndbt": 0.0, "mndgc": 0.0, "mnc": 0.0, "dt_tuoi": 1106.0}}, {"type": "Feature", "geometry": {"type": "Point", "coordinates": [109.1832, 12.7256]}, "properties": {"ma": "H32.TL0020.DD002", "ten": "Đập Vĩnh Huề", "loai": "Đập dâng", "vung": "Nam Trung Bộ", "tinh": "56", "don_vi": "Công ty KTCTTL Khánh Hòa", "luu_vuc": "Sông nhỏ", "flv_km2": 0.0, "w_huu_ich": 0.0, "w_toanbo": 0.0, "mndbt": 0.0, "mndgc": 0.0, "mnc": 0.0, "dt_tuoi": 500.0}}, {"type": "Feature", "geometry": {"type": "Point", "coordinates": [109.201601, 12.744237]}, "properties": {"ma": "H32.TL0020.DD003", "ten": "Đập Đồng Dưới", "loai": "Đập dâng", "vung": "Nam Trung Bộ", "tinh": "56", "don_vi": "Công ty KTCTTL Khánh Hòa", "luu_vuc": "Sông nhỏ", "flv_km2": 0.0, "w_huu_ich": 0.0, "w_toanbo": 0.0, "mndbt": 0.0, "mndgc": 0.0, "mnc": 0.0, "dt_tuoi": 570.0}}, {"type": "Feature", "geometry": {"type": "Point", "coordinates": [109.13125, 12.493103]}, "properties": {"ma": "H32.TL0020.DD004", "ten": "Đập Chị Trừ", "loai": "Đập dâng", "vung": "Nam Trung Bộ", "tinh": "56", "don_vi": "Công ty KTCTTL Khánh Hòa", "luu_vuc": "Sông Cái Ninh Hòa", "flv_km2": 0.0, "w_huu_ich": 0.0, "w_toanbo": 0.0, "mndbt": 0.0, "mndgc": 0.0, "mnc": 0.0, "dt_tuoi": 450.0}}, {"type": "Feature", "geometry": {"type": "Point", "coordinates": [108.7042, 11.8263]}, "properties": {"ma": "H43.TL0022.DD001", "ten": "Đập 195", "loai": "Đập dâng", "vung": "Nam Trung Bộ", "tinh": "58", "don_vi": "Công ty KTCTTL Ninh Thuận", "luu_vuc": "Sông Cái Phan Rang", "flv_km2": 38.0, "w_huu_ich": 0.0, "w_toanbo": 0.0, "mndbt": 0.0, "mndgc": 0.0, "mnc": 0.0, "dt_tuoi": 300.0}}, {"type": "Feature", "geometry": {"type": "Point", "coordinates": [108.9408, 11.5961]}, "properties": {"ma": "H43.TL0023.DD002", "ten": "Đập Lâm Cấm", "loai": "Đập dâng", "nam_xd": "1964", "vung": "Nam Trung Bộ", "tinh": "58", "don_vi": "Công ty KTCTTL Ninh Thuận", "luu_vuc": "Sông Cái Phan Rang", "flv_km2": 2093.0, "w_huu_ich": 0.0, "w_toanbo": 0.0, "mndbt": 0.0, "mndgc": 0.0, "mnc": 0.0, "dt_tuoi": 2000.0}}, {"type": "Feature", "geometry": {"type": "Point", "coordinates": [108.8034, 11.7826]}, "properties": {"ma": "H43.TL0025.DD001", "ten": "Đập Tân Mỹ", "loai": "Đập dâng", "nam_xd": "2016", "vung": "Nam Trung Bộ", "tinh": "58", "don_vi": "Công ty KTCTTL Ninh Thuận", "luu_vuc": "Sông Cái Phan Rang", "flv_km2": 805.0, "w_huu_ich": 0.0, "w_toanbo": 0.0, "mndbt": 0.0, "mndgc": 0.0, "mnc": 0.0, "dt_tuoi": 6800.0}}, {"type": "Feature", "geometry": {"type": "Point", "coordinates": [108.328271, 11.370966]}, "properties": {"ma": "H11.TL0022.DD001", "ten": "Đập Phan Rí", "loai": "Đập dâng", "vung": "Nam Trung Bộ", "tinh": "60", "don_vi": "Công ty KTCTTL Bình Thuận", "luu_vuc": "Sông Lũy", "flv_km2": 0.0, "w_huu_ich": 0.0, "w_toanbo": 0.0, "mndbt": 0.0, "mndgc": 0.0, "mnc": 0.0, "dt_tuoi": 15700.0}}, {"type": "Feature", "geometry": {"type": "Point", "coordinates": [108.3044, 11.3185]}, "properties": {"ma": "H11.TL0022.DD002", "ten": "HT kênh 812 Châu Tá", "loai": "Đập dâng", "vung": "Nam Trung Bộ", "tinh": "60", "don_vi": "Công ty KTCTTL Bình Thuận", "luu_vuc": "Sông Lũy", "flv_km2": 0.0, "w_huu_ich": 0.0, "w_toanbo": 0.0, "mndbt": 0.0, "mndgc": 0.0, "mnc": 0.0, "dt_tuoi": 6125.0}}, {"type": "Feature", "geometry": {"type": "Point", "coordinates": [105.379086, 19.895352]}, "properties": {"ma": "G10.TL0002.DD002", "ten": "Đập Bái thượng", "loai": "Đập dâng", "nam_xd": "1926", "vung": "Bắc Trung Bộ", "tinh": "38", "don_vi": "Bộ NN&PTNT", "luu_vuc": "Sông Mã", "flv_km2": 6625.0, "w_huu_ich": 0.0, "w_toanbo": 0.0, "mndbt": 17.0, "mndgc": 0.0, "mnc": 17.0, "dt_tuoi": 49630.0, "ma_api": "4ed2d23f-4ff7-437a-9119-7f3d80b98277"}}, {"type": "Feature", "geometry": {"type": "Point", "coordinates": [105.87863, 21.57349]}, "properties": {"ma": "G10.TL0011.DD001", "ten": "Đập Thác Huống", "loai": "Đập dâng", "vung": "MN phía Bắc", "tinh": "19", "don_vi": "Bộ NN&PTNT", "luu_vuc": "Sông Cầu", "flv_km2": 0.0, "w_huu_ich": 0.0, "w_toanbo": 0.0, "mndbt": 0.0, "mndgc": 0.0, "mnc": 0.0, "dt_tuoi": 0.0, "ma_api": "f4602d5e-3519-425d-b20c-7c9921cb9a39"}}, {"type": "Feature", "geometry": {"type": "Point", "coordinates": [105.533517, 21.441363]}, "properties": {"ma": "G10.TL0014.DD001", "ten": "Đập Liễn Sơn", "loai": "Đập dâng", "vung": "ĐB Sông Hồng", "tinh": "26", "don_vi": "Bộ NN&PTNT", "luu_vuc": "Sông Phó Đáy", "flv_km2": 0.0, "w_huu_ich": 0.0, "w_toanbo": 0.0, "mndbt": 0.0, "mndgc": 0.0, "mnc": 0.0, "dt_tuoi": 0.0}}, {"type": "Feature", "geometry": {"type": "Point", "coordinates": [108.620711, 15.11939]}, "properties": {"ma": "H48.TL0021.DD001", "ten": "Đập Thạch Nham", "loai": "Đập dâng", "nam_xd": "1984", "vung": "Nam Trung Bộ", "tinh": "51", "don_vi": "Công ty KTCTTL Quảng Ngãi", "luu_vuc": "Sông Trà Bồng-Trà Khúc", "flv_km2": 2836.0, "w_huu_ich": 0.0, "w_toanbo": 0.0, "mndbt": 0.0, "mndgc": 0.0, "mnc": 0.0, "dt_tuoi": 50000.0}}, {"type": "Feature", "geometry": {"type": "Point", "coordinates": [108.993049, 14.414519]}, "properties": {"ma": "H08.TL0026.DD001", "ten": "Đập Lại Giang", "loai": "Đập dâng", "vung": "Nam Trung Bộ", "tinh": "52", "don_vi": "Công ty KTCTTL Bình Định", "luu_vuc": "Sông Lại Giang", "flv_km2": 597.0, "w_huu_ich": 0.0, "w_toanbo": 0.0, "mndbt": 0.0, "mndgc": 0.0, "mnc": 0.0, "dt_tuoi": 5000.0}}, {"type": "Feature", "geometry": {"type": "Point", "coordinates": [109.033858, 13.913586]}, "properties": {"ma": "H08.TL0027.DD001", "ten": "Đập Bình Thạnh", "loai": "Đập dâng", "vung": "Nam Trung Bộ", "tinh": "52", "don_vi": "Công ty KTCTTL Bình Định", "luu_vuc": "Sông Kôn", "flv_km2": 0.0, "w_huu_ich": 0.0, "w_toanbo": 0.0, "mndbt": 0.0, "mndgc": 0.0, "mnc": 0.0, "dt_tuoi": 0.0}}, {"type": "Feature", "geometry": {"type": "Point", "coordinates": [109.0042, 14.0813]}, "properties": {"ma": "H08.TL0031.DD001", "ten": "Đập Cây Gai", "loai": "Đập dâng", "vung": "Nam Trung Bộ", "tinh": "52", "don_vi": "Công ty KTCTTL Bình Định", "luu_vuc": "Sông Kôn", "flv_km2": 0.0, "w_huu_ich": 0.0, "w_toanbo": 0.0, "mndbt": 0.0, "mndgc": 0.0, "mnc": 0.0, "dt_tuoi": 0.0}}, {"type": "Feature", "geometry": {"type": "Point", "coordinates": [109.084606, 13.045278]}, "properties": {"ma": "H45.TL0015.DD001", "ten": "Đập Đồng Cam", "loai": "Đập dâng", "nam_xd": "1932", "vung": "Nam Trung Bộ", "tinh": "54", "don_vi": "Công ty KTCTTL Đồng Cam", "luu_vuc": "Sông Ba", "flv_km2": 13.2, "w_huu_ich": 0.0, "w_toanbo": 0.0, "mndbt": 0.0, "mndgc": 0.0, "mnc": 0.0, "dt_tuoi": 19800.0}}, {"type": "Feature", "geometry": {"type": "Point", "coordinates": [109.217934, 13.332141]}, "properties": {"ma": "H45.TL0016.DD001", "ten": "Đập Tam Giang", "loai": "Đập dâng", "nam_xd": "1960", "vung": "Nam Trung Bộ", "tinh": "54", "don_vi": "Công ty KTCTTL Đồng Cam", "luu_vuc": "Sông Kỳ Lộ", "flv_km2": 1.6, "w_huu_ich": 0.0, "w_toanbo": 0.0, "mndbt": 0.0, "mndgc": 0.0, "mnc": 0.0, "dt_tuoi": 2100.0}}, {"type": "Feature", "geometry": {"type": "Point", "coordinates": [109.0208, 12.9265]}, "properties": {"ma": "H45.TL0017.DD001", "ten": "Đập Sông Con", "loai": "Đập dâng", "vung": "Nam Trung Bộ", "tinh": "54", "don_vi": "Công ty KTCTTL Đồng Cam", "luu_vuc": "Sông Ba", "flv_km2": 17.0, "w_huu_ich": 0.0, "w_toanbo": 0.0, "mndbt": 0.0, "mndgc": 0.0, "mnc": 0.0, "dt_tuoi": 4100.0}}, {"type": "Feature", "geometry": {"type": "Point", "coordinates": [108.871416, 11.637217]}, "properties": {"ma": "H43.TL0023.DD001", "ten": "Đập Nha Trinh", "loai": "Đập dâng", "nam_xd": "1964", "vung": "Nam Trung Bộ", "tinh": "58", "don_vi": "Công ty KTCTTL Ninh Thuận", "luu_vuc": "Sông Cái Phan Rang", "flv_km2": 2043.0, "w_huu_ich": 0.0, "w_toanbo": 0.0, "mndbt": 0.0, "mndgc": 0.0, "mnc": 0.0, "dt_tuoi": 10800.0}}, {"type": "Feature", "geometry": {"type": "Point", "coordinates": [108.733, 11.8429]}, "properties": {"ma": "H43.TL0026.DD001", "ten": "Đập Sông Pha", "loai": "Đập dâng", "nam_xd": "2000", "vung": "Nam Trung Bộ", "tinh": "58", "don_vi": "Công ty KTCTTL Ninh Thuận", "luu_vuc": "Sông Cái Phan Rang", "flv_km2": 90.0, "w_huu_ich": 0.0, "w_toanbo": 0.0, "mndbt": 0.0, "mndgc": 0.0, "mnc": 0.0, "dt_tuoi": 3000.0}}, {"type": "Feature", "geometry": {"type": "Point", "coordinates": [108.3949, 11.2113]}, "properties": {"ma": "H11.TL0024.DD001", "ten": "Đập Đồng Mới", "loai": "Đập dâng", "vung": "Nam Trung Bộ", "tinh": "60", "don_vi": "Công ty KTCTTL Bình Thuận", "luu_vuc": "Sông Lũy", "flv_km2": 0.0, "w_huu_ich": 0.0, "w_toanbo": 0.0, "mndbt": 0.0, "mndgc": 0.0, "mnc": 0.0, "dt_tuoi": 1200.0}}, {"type": "Feature", "geometry": {"type": "Point", "coordinates": [107.7455, 11.1268]}, "properties": {"ma": "H11.TL0025.DD001", "ten": "Đập Tà Pao", "loai": "Đập dâng", "vung": "Nam Trung Bộ", "tinh": "60", "don_vi": "Công ty KTCTTL Bình Thuận", "luu_vuc": "Sông Đồng Nai", "flv_km2": 0.0, "w_huu_ich": 0.0, "w_toanbo": 0.0, "mndbt": 0.0, "mndgc": 0.0, "mnc": 0.0, "dt_tuoi": 20304.0, "ma_api": "19f7989e-e821-45fa-aa9e-197d3ee848af"}}]}