{"type": "FeatureCollection", "name": "khac", "crs": {"type": "name", "properties": {"name": "urn:ogc:def:crs:OGC:1.3:CRS84"}}, "features": [{"type": "Feature", "geometry": {"type": "Point", "coordinates": [105.51, 18.69]}, "properties": {"ma": "Đang cập nhật", "ten": "HT Nam Hưng Nghi", "loai": "Hệ thống hỗn hợp", "vung": "Bắc Trung Bộ", "tinh": "40", "don_vi": "Đang cập nhật", "luu_vuc": "Sông Cả", "dt_tuoi": 22650.0}}, {"type": "Feature", "geometry": {"type": "Point", "coordinates": [108.84, 14.99]}, "properties": {"ma": "Đang cập nhật", "ten": "HT tiêu Sông Thoa", "loai": "HT tiêu", "vung": "Nam Trung Bộ", "tinh": "51", "don_vi": "Đang cập nhật", "luu_vuc": "Sông Trà Bồng", "dt_tuoi": 6000.0}}]}